NORAD_CAT_ID,OBJECT_NAME,OBJECT_TYPE,EPOCH,MEAN_MOTION,ECCENTRICITY,INCLINATION,RA_OF_ASC_NODE,ARG_OF_PERICENTER,MEAN_ANOMALY,BSTAR,MEAN_MOTION_DOT,MEAN_MOTION_DDOT,TLE_LINE0,TLE_LINE1,TLE_LINE2,SEMIMAJOR_AXIS,PERIOD,APOGEE,PERIGEE,DECAYED
53776.0,STARLINK-4708,PAYLOAD,2023-08-28 21:44:26,15.08840307,0.000129,53.2166,106.3121,88.6975,271.4165,1.5129e-05,-4.7e-07,0.0,0 STARLINK-4708,1 53776U 22111D   23240.90586252 -.00000047  00000-0  15129-4 0  9997,2 53776  53.2166 106.3121 0001290  88.6975 271.4165 15.08840307 54441,6917.879,95.438,540.637,538.852,0.0
53776.0,STARLINK-4708,PAYLOAD,2023-08-29 00:55:12,15.08841186,0.0001327,53.2169,105.7172,88.3758,271.7386,2.3073e-05,7.9e-07,0.0,0 STARLINK-4708,1 53776U 22111D   23241.03834159  .00000079  00000-0  23073-4 0  9995,2 53776  53.2169 105.7172 0001327  88.3758 271.7386 15.08841186 53375,6917.877,95.437,540.66,538.824,0.0
53776.0,STARLINK-4708,PAYLOAD,2023-08-29 19:59:50,15.08837783,0.0001367,53.2172,102.1481,90.2039,269.9109,-1.6582e-05,-5.52e-06,0.0,0 STARLINK-4708,1 53776U 22111D   23241.83322517 -.00000552  00000-0 -16582-4 0  9998,2 53776  53.2172 102.1481 0001367  90.2039 269.9109 15.08837783 54585,6917.887,95.438,540.698,538.806,0.0
53776.0,STARLINK-4708,PAYLOAD,2023-08-30 00:46:00,15.08838465,0.0001378,53.2172,101.2559,90.493,269.622,-8.4307e-06,-4.22e-06,0.0,0 STARLINK-4708,1 53776U 22111D   23242.03194452 -.00000422  00000-0 -84307-5 0  9993,2 53776  53.2172 101.2559 0001378  90.4930 269.6220 15.08838465 53527,6917.885,95.438,540.703,538.797,0.0
53776.0,STARLINK-4708,PAYLOAD,2023-08-30 21:26:01,15.08835288,0.0001378,53.217,97.3904,89.6188,270.4962,-2.5311e-05,-6.91e-06,0.0,0 STARLINK-4708,1 53776U 22111D   23242.89306849 -.00000691  00000-0 -25311-4 0  9999,2 53776  53.2170  97.3904 0001378  89.6188 270.4962 15.08835288 54747,6917.895,95.438,540.713,538.807,0.0
53776.0,STARLINK-4708,PAYLOAD,2023-08-30 23:01:24,15.08833602,0.0001365,53.217,97.0933,88.704,271.4109,-2.7755e-05,-7.3e-06,0.0,0 STARLINK-4708,1 53776U 22111D   23242.95930983 -.00000730  00000-0 -27755-4 0  9996,2 53776  53.2170  97.0933 0001365  88.7040 271.4109 15.08833602 53661,6917.9,95.438,540.709,538.821,0.0
53776.0,STARLINK-4708,PAYLOAD,2023-09-01 00:27:34,15.08836259,0.0001286,53.2169,92.3353,92.5348,267.5791,5.9485e-06,-1.93e-06,0.0,0 STARLINK-4708,1 53776U 22111D   23244.01914979 -.00000193  00000-0  59485-5 0  9990,2 53776  53.2169  92.3353 0001286  92.5348 267.5791 15.08836259 53821,6917.892,95.438,540.646,538.867,0.0
53776.0,STARLINK-4708,PAYLOAD,2023-09-01 06:49:07,15.0883751,0.0001377,53.2175,91.1459,88.1382,271.9768,5.5375e-06,-2e-06,0.0,0 STARLINK-4708,1 53776U 22111D   23244.28410978 -.00000200  00000-0  55375-5 0  9992,2 53776  53.2175  91.1459 0001377  88.1382 271.9768 15.08837510 54951,6917.888,95.438,540.706,538.8,0.0
53776.0,STARLINK-4708,PAYLOAD,2023-09-02 06:39:54,15.08820609,0.0001127,53.209,86.6872,97.8197,262.2923,0.00024526,3.616e-05,0.0,0 STARLINK-4708,1 53776U 22111D   23245.27771408  .00003616  00000-0  24526-3 0  9995,2 53776  53.2090  86.6872 0001127  97.8197 262.2923 15.08820609 54013,6917.94,95.439,540.584,539.025,0.0
53776.0,STARLINK-4708,PAYLOAD,2023-09-02 20:58:22,15.08840043,0.00014,53.2177,84.0087,89.029,271.0863,3.3525e-05,2.46e-06,0.0,0 STARLINK-4708,1 53776U 22111D   23245.87387010  .00000246  00000-0  33525-4 0  9999,2 53776  53.2177  84.0087 0001400  89.0290 271.0863 15.08840043 55195,6917.88,95.438,540.714,538.777,0.0
53776.0,STARLINK-4708,PAYLOAD,2023-09-03 00:09:08,15.08839764,0.0001403,53.2177,83.414,88.8788,271.2365,2.97e-05,1.85e-06,0.0,0 STARLINK-4708,1 53776U 22111D   23246.00635027  .00000185  00000-0  29700-4 0  9991,2 53776  53.2177  83.4140 0001403  88.8788 271.2365 15.08839764 54129,6917.881,95.438,540.717,538.776,0.0
53776.0,STARLINK-4708,PAYLOAD,2023-09-03 06:30:41,15.08840449,0.0001391,53.2177,82.2247,89.2503,270.8648,3.4154e-05,2.56e-06,0.0,0 STARLINK-4708,1 53776U 22111D   23246.27130968  .00000256  00000-0  34154-4 0  9992,2 53776  53.2177  82.2247 0001391  89.2503 270.8648 15.08840449 55256,6917.879,95.438,540.706,538.782,0.0
53776.0,STARLINK-4708,PAYLOAD,2023-09-04 12:43:00,15.08836811,0.0001372,53.2172,76.575,88.5636,271.5513,-1.3218e-05,-4.98e-06,0.0,0 STARLINK-4708,1 53776U 22111D   23247.52987260 -.00000498  00000-0 -13218-4 0  9994,2 53776  53.2172  76.5750 0001372  88.5636 271.5513 15.08836811 55442,6917.89,95.438,540.704,538.806,0.0
53776.0,STARLINK-4708,PAYLOAD,2023-09-04 19:04:33,15.08838393,0.0001374,53.2172,75.3857,88.3833,271.7317,-5.0481e-07,-2.96e-06,0.0,0 STARLINK-4708,1 53776U 22111D   23247.79483121 -.00000296  00000-0 -50481-6 0  9991,2 53776  53.2172  75.3857 0001374  88.3833 271.7317 15.08838393 54390,6917.885,95.438,540.701,538.8,0.0
53776.0,STARLINK-4708,PAYLOAD,2023-09-05 12:33:48,15.08836844,0.0001355,53.217,72.1144,89.7283,270.3865,-1.544e-05,-5.34e-06,0.0,0 STARLINK-4708,1 53776U 22111D   23248.52347321 -.00000534  00000-0 -15440-4 0  9993,2 53776  53.2170  72.1144 0001355  89.7283 270.3865 15.08836844 55590,6917.89,95.438,540.692,538.818,0.0
53776.0,STARLINK-4708,PAYLOAD,2023-09-06 12:24:35,15.08837061,0.000136,53.2171,67.6547,89.9889,270.1259,2.8195e-05,1.61e-06,0.0,0 STARLINK-4708,1 53776U 22111D   23249.51707255  .00000161  00000-0  28195-4 0  9994,2 53776  53.2171  67.6547 0001360  89.9889 270.1259 15.08837061 54650,6917.889,95.438,540.695,538.814,0.0
53776.0,STARLINK-4708,PAYLOAD,2023-09-07 12:15:22,15.08836301,0.0001337,53.2181,63.1944,89.4725,270.642,4.5574e-06,-2.15e-06,0.0,0 STARLINK-4708,1 53776U 22111D   23250.51067505 -.00000215  00000-0  45574-5 0  9995,2 53776  53.2181  63.1944 0001337  89.4725 270.6420 15.08836301 55899,6917.892,95.438,540.682,538.832,0.0
53776.0,STARLINK-4708,PAYLOAD,2023-09-07 20:12:17,15.088374,0.0001345,53.2179,61.7073,89.3753,270.7393,1.3735e-05,-6.9e-07,0.0,0 STARLINK-4708,1 53776U 22111D   23250.84187455 -.00000069  00000-0  13735-4 0  9998,2 53776  53.2179  61.7073 0001345  89.3753 270.7393 15.08837400 55949,6917.888,95.438,540.684,538.823,0.0
53776.0,STARLINK-4708,PAYLOAD,2023-09-08 04:09:13,15.08835521,0.0001373,53.2178,60.22,91.0355,269.0794,-8.5109e-06,-4.23e-06,0.0,0 STARLINK-4708,1 53776U 22111D   23251.17307712 -.00000423  00000-0 -85109-5 0  9995,2 53776  53.2178  60.2200 0001373  91.0355 269.0794 15.08835521 55996,6917.894,95.438,540.709,538.809,0.0
53776.0,STARLINK-4708,PAYLOAD,2023-09-08 20:03:05,15.08834824,0.0001313,53.2182,57.2468,93.4118,266.7025,-1.8116e-05,-5.76e-06,0.0,0 STARLINK-4708,1 53776U 22111D   23251.83547968 -.00000576  00000-0 -18116-4 0  9999,2 53776  53.2182  57.2468 0001313  93.4118 266.7025 15.08834824 56098,6917.896,95.438,540.67,538.853,0.0
53776.0,STARLINK-4708,PAYLOAD,2023-09-09 10:21:33,15.08835374,0.0001282,53.2183,54.5701,91.5042,268.6097,2.3342e-05,8.4e-07,0.0,0 STARLINK-4708,1 53776U 22111D   23252.43163925  .00000084  00000-0  23342-4 0  9992,2 53776  53.2183  54.5701 0001282  91.5042 268.6097 15.08835374 55099,6917.895,95.438,540.646,538.873,0.0
53776.0,STARLINK-4708,PAYLOAD,2023-09-10 11:47:43,15.08836722,0.0001216,53.2181,49.8122,87.6336,272.4796,6.1129e-05,6.85e-06,0.0,0 STARLINK-4708,1 53776U 22111D   23253.49147828  .00000685  00000-0  61129-4 0  9995,2 53776  53.2181  49.8122 0001216  87.6336 272.4796 15.08836722 56346,6917.89,95.438,540.597,538.914,0.0
53776.0,STARLINK-4708,PAYLOAD,2023-09-10 18:09:16,15.08839148,0.0001215,53.2184,48.6228,86.3588,273.7543,4.6673e-05,4.55e-06,0.0,0 STARLINK-4708,1 53776U 22111D   23253.75643774  .00000455  00000-0  46673-4 0  9997,2 53776  53.2184  48.6228 0001215  86.3588 273.7543 15.08839148 55299,6917.883,95.438,540.589,538.907,0.0
53776.0,STARLINK-4708,PAYLOAD,2023-09-11 03:41:35,15.08839535,0.0001224,53.2185,46.8388,85.8457,274.2675,4.3781e-05,4.09e-06,0.0,0 STARLINK-4708,1 53776U 22111D   23254.15387767  .00000409  00000-0  43781-4 0  9995,2 53776  53.2185  46.8388 0001224  85.8457 274.2675 15.08839535 56446,6917.882,95.438,540.594,538.9,0.0
53776.0,STARLINK-4708,PAYLOAD,2023-09-11 19:35:26,15.08842313,0.0001213,53.2184,43.8651,86.5903,273.5227,2.3973e-05,9.4e-07,0.0,0 STARLINK-4708,1 53776U 22111D   23254.81627614  .00000094  00000-0  23973-4 0  9997,2 53776  53.2184  43.8651 0001213  86.5903 273.5227 15.08842313 55450,6917.873,95.437,540.577,538.899,0.0
53776.0,STARLINK-4708,PAYLOAD,2023-09-12 13:04:40,15.08838462,0.0001218,53.2185,40.5943,86.1154,273.9977,1.8468e-06,-2.58e-06,0.0,0 STARLINK-4708,1 53776U 22111D   23255.54491880 -.00000258  00000-0  18468-5 0  9999,2 53776  53.2185  40.5943 0001218  86.1154 273.9977 15.08838462 56657,6917.885,95.438,540.593,538.907,0.0
53776.0,STARLINK-4708,PAYLOAD,2023-09-12 17:50:50,15.08841051,0.0001234,53.2185,39.7021,86.9644,273.149,1.4636e-05,-5.5e-07,0.0,0 STARLINK-4708,1 53776U 22111D   23255.74363676 -.00000055  00000-0  14636-4 0  9999,2 53776  53.2185  39.7021 0001234  86.9644 273.1490 15.08841051 56687,6917.877,95.437,540.596,538.889,0.0
53776.0,STARLINK-4708,PAYLOAD,2023-09-13 12:55:27,15.08840763,0.0001246,53.2183,36.1332,89.5125,270.601,1.9839e-05,2.8e-07,0.0,0 STARLINK-4708,1 53776U 22111D   23256.53851591  .00000028  00000-0  19839-4 0  9994,2 53776  53.2183  36.1332 0001246  89.5125 270.6010 15.08840763 56800,6917.878,95.438,540.605,538.881,0.0
53776.0,STARLINK-4708,PAYLOAD,2023-09-13 16:06:13,15.08841517,0.0001238,53.2186,35.5385,89.4218,270.6916,2.1017e-05,4.7e-07,0.0,0 STARLINK-4708,1 53776U 22111D   23256.67099530  .00000047  00000-0  21017-4 0  9998,2 53776  53.2186  35.5385 0001238  89.4218 270.6916 15.08841517 55731,6917.876,95.437,540.597,538.884,0.0
53776.0,STARLINK-4708,PAYLOAD,2023-09-13 19:17:00,15.08841835,0.0001239,53.2185,34.9438,89.2162,270.8972,2.3425e-05,8.5e-07,0.0,0 STARLINK-4708,1 53776U 22111D   23256.80347484  .00000085  00000-0  23425-4 0  9994,2 53776  53.2185  34.9438 0001239  89.2162 270.8972 15.08841835 56849,6917.875,95.437,540.597,538.883,0.0
